XRISM                   
1 57800U 23137A   24155.92946544  .00005724  00000+0  43064-3 0  9993
2 57800  31.0028  96.9967 0009293  76.5660 283.6011 15.01053358 40618
